[{"OBJECT_NAME":"STARLINK-35877","OBJECT_ID":"2025-294V","EPOCH":"2026-03-09T06:43:58.814112","MEAN_MOTION":15.27588364,"ECCENTRICITY":0.00018784,"INCLINATION":43.003,"RA_OF_ASC_NODE":40.6399,"ARG_OF_PERICENTER":255.1594,"MEAN_ANOMALY":104.905,"EPHEMERIS_TYPE":0,"CLASSIFICATION_TYPE":"U","NORAD_CAT_ID":67049,"ELEMENT_SET_NO":999,"REV_AT_EPOCH":1473,"BSTAR":0.00091411684,"MEAN_MOTION_DOT":0.00024984,"MEAN_MOTION_DDOT":0},{"OBJECT_NAME":"APEX R\/B","OBJECT_ID":"1994-046B","EPOCH":"2026-03-09T21:22:00.361344","MEAN_MOTION":14.28228355,"ECCENTRICITY":0.06427603,"INCLINATION":69.9225,"RA_OF_ASC_NODE":359.7806,"ARG_OF_PERICENTER":191.622,"MEAN_ANOMALY":166.9456,"EPHEMERIS_TYPE":0,"CLASSIFICATION_TYPE":"U","NORAD_CAT_ID":23198,"ELEMENT_SET_NO":999,"REV_AT_EPOCH":53288,"BSTAR":0.00062123339,"MEAN_MOTION_DOT":0.00017491,"MEAN_MOTION_DDOT":0}]
